OBJECT B                
1 51825U 22019B   25347.70895752  .00042639  00000+0  69327-3 0  9992
2 51825  97.3680  67.3511 0009082  89.1197 271.1097 15.52528955210796
